[{"OBJECT_NAME":"STARLINK-5728","OBJECT_ID":"2023-020V","EPOCH":"2026-03-09T22:00:01.999584","MEAN_MOTION":15.12999401,"ECCENTRICITY":0.00012068,"INCLINATION":43.0006,"RA_OF_ASC_NODE":2.7584,"ARG_OF_PERICENTER":279.492,"MEAN_ANOMALY":348.9005,"EPHEMERIS_TYPE":0,"CLASSIFICATION_TYPE":"U","NORAD_CAT_ID":55588,"ELEMENT_SET_NO":999,"REV_AT_EPOCH":573,"BSTAR":0.026730069,"MEAN_MOTION_DOT":0.00510293,"MEAN_MOTION_DDOT":0},{"OBJECT_NAME":"FLOCK 4H-17","OBJECT_ID":"2025-276BG","EPOCH":"2026-03-09T12:13:32.774304","MEAN_MOTION":15.19779499,"ECCENTRICITY":0.00021349,"INCLINATION":97.4298,"RA_OF_ASC_NODE":143.9091,"ARG_OF_PERICENTER":323.7123,"MEAN_ANOMALY":36.3967,"EPHEMERIS_TYPE":0,"CLASSIFICATION_TYPE":"U","NORAD_CAT_ID":66720,"ELEMENT_SET_NO":999,"REV_AT_EPOCH":1529,"BSTAR":0.00077231718,"MEAN_MOTION_DOT":0.00016485,"MEAN_MOTION_DDOT":0}]
